#dP2018  9 27  0  0  0.00000000      96 __u+U ITR00 FIT  IAC
## 2020 345600.00000000   900.00000000 58388 0.0000000000000
+   92   C01C02C03C04C05C06C07C08C09C10C11C12C13C14E01E02E03
+        E04E05E07E08E09E11E12E14E18E19E21E24E25E26E27E30G01
+        G02G03G04G05G06G07G08G09G10G11G12G13G14G15G16G17G18
+        G19G20G21G22G23G24G25G26G27G28G29G30G31G32J01J02J03
+        J07R01R02R03R04R05R07R08R09R10R11R13R14R15R16R17R18
+        R19R20R21R22R23R24R26  0  0  0  0  0  0  0  0  0  0
++         0  0  0  0  0  0  0  0  0  0  0  0  0  0  0  0  0
++         0  0  0  0  0  0  0  0  0  0  0  0  0  0  0  0  0
++         0  0  0  0  0  0  0  0  0  0  0  0  0  0  0  0  0
++         0  0  0  0  0  0  0  0  0  0  0  0  0  0  0  0  0
++         0  0  0  0  0  0  0  0  0  0  0  0  0  0  0  0  0
++         0  0  0  0  0  0  0  0  0  0  0  0  0  0  0  0  0
%c M  cc GPS ccc cccc cccc cccc cccc ccccc ccccc ccccc ccccc
%c cc cc ccc ccc cccc cccc cccc cccc ccccc ccccc ccccc ccccc
%f  0.0000000  0.000000000  0.00000000000  0.000000000000000
%f  0.0000000  0.000000000  0.00000000000  0.000000000000000
%i    0    0    0    0      0      0      0      0         0
%i    0    0    0    0      0      0      0      0         0
/*                                                          
/*   RSA / INFORMATION & ANALYSIS CENTER (IAC) OF MCC       
/*   ULTRA-RAPID DETERMINATION                              
/* PCV:IGS14_2000 OL/AL:FES2004  NONE     YN ORB:CoN CLK:CoN
*  2018 09 27 18  0  0.00000000
PC01 -32261.881883  27153.950299    781.786938      2.455852
PC02   4336.155405  41933.684129   -941.110860     14.782993
PC03 -14720.808982  39492.938303     27.672920    207.703299
PC04 -39645.545097  14412.359123    324.839369   -287.070655
PC05  21908.429907  35995.223818  -1173.249182   -211.902947
PC06 -12322.133914  37209.499660 -14780.744717    331.638404
PC07 -10206.212930  23754.712561  33441.474658     -5.708471
PC08 -26462.914823  27251.924905 -18528.161981    542.156327
PC09  -3251.787818  41864.564112    521.607921    150.557447
PC10   3612.607476  28920.390783  30735.738484   -107.583227
PC11 -15069.758662  -4698.149554  23074.572956   -699.477780
PC12  -1155.500513 -21156.627441  18162.257586    119.479548
PC13 -11354.097160  28584.079495 -28958.623041   -298.359614
PC14 -18989.357727 -16103.718704 -12598.062012    483.568647
PE01 -13653.336914 -18770.773258 -18354.162413   -443.995559
PE02  13694.778293  18777.100103  18339.897987     29.055617
PE03   7302.219125  28197.840782   5311.886527    -81.893432
PE04 -16302.937142 -13998.969869 -20353.114291   -126.112526
PE05  -6030.538273  25937.868409 -12925.435741    186.599186
PE07  15796.911483  -8505.906687  23548.708855    -46.154082
PE08  16321.696363  13840.243370  20459.718298   6494.244691
PE09 -15573.170346   8638.164068 -23640.386632   6664.320246
PE11 -25331.436020  13467.747974   7259.963466   5533.857613
PE12 -19528.753637  -3489.579469  21963.838606   5147.665235
PE14 -14048.669592  -4854.146774  18073.823888   6513.141326
PE18  20652.647218   3423.956676 -24974.594394   5874.797092
PE19  -6147.108195 -28744.786996  -3492.355596    -11.854294
PE21   8188.250323 -14123.336508 -24686.531860   -496.731525
PE24 -24388.620088   1602.476069  16699.878698   6470.681458
PE25  -8188.737437  14130.951792  24697.802253   2029.778041
PE26  16283.950705 -22035.994749  11180.515538   5429.013657
PE27  24755.893299  -1177.152358 -16180.998710    622.509607
PE30  26934.812201  12226.687578   1126.494110   5478.623693
PG01   3415.933428  14649.092172 -22054.267373    -93.321949
PG02  17374.342265 -15480.748572  13164.746213    -13.980517
PG03  11425.860507  21764.798095 -10180.707639    141.870502
PG04 -18654.327238  -1565.763377  18705.003498    103.344104
PG05   6811.718403 -14455.095370  21070.379894     -1.523852
PG06  25841.366799  -6104.059767   -984.946700    357.752630
PG07  18999.088263   7920.811990  17272.639403    116.683016
PG08  -5592.357520  25819.266318  -1666.327702   -116.604706
PG09   9203.264737  16668.141978  18478.382590    504.046244
PG10 -21141.026859  -6863.248496 -14627.912670    179.072542
PG11   -647.417308  19439.278828 -18723.734973   -714.661191
PG12  -6248.911453 -21720.564878 -14285.219924    303.879970
PG13  12681.362360 -22882.774220   4416.057252    -88.294401
PG14 -16601.308522  11971.799284 -16526.777578    -97.075538
PG15    382.157649 -25762.449163  -5748.396702   -344.715319
PG16  -9232.341380  11552.410647  21870.513362      6.987585
PG17  15430.349802  -1856.869458 -21123.805627    -50.838679
PG18  -6732.593463  16869.403846 -19804.986555     62.006282
PG19  16820.285092 -12189.541278 -16920.066256   -398.786616
PG20 -22619.584976 -12906.187172  -5625.538624    516.453900
PG21 -21440.361233  -5038.053822  15602.358263   -330.312757
PG22   5080.726428  20540.982211 -15838.392754   -531.237718
PG23   3667.161736  22913.871260  12834.085942   -209.956685
PG24   1147.338858 -16363.499702 -20962.353263    -55.970201
PG25 -17085.100073 -20320.515100  -2906.250213   -653.374281
PG26 -16747.412602   3758.441207  20300.656619     -7.464696
PG27 -11990.795807  21873.946421   8644.119204    340.611615
PG28  20077.788556  11024.433948 -12774.063585    746.784584
PG29  -6980.060494 -17616.668949  18585.372467    368.148564
PG30  25260.720481   1000.365055   8447.166868     18.155704
PG31 -25836.227116   6956.098582   1486.783145     90.645251
PG32 -16081.994012   3466.228072 -20792.723297   -410.866956
PJ01 -16954.134807  25271.064193 -24608.032252   -331.143985
PJ02 -30397.623694  21729.321081  24293.314586      0.065795
PJ03 -29229.916207  26933.396058  18991.201876      0.123852
PJ07 -25359.772446  33692.141962    -25.371906    121.667382
PR01  10424.942436  22679.393040   5296.354781     32.616782
PR02  12726.409867   7261.191791  20901.301322    331.695051
PR03   7191.706966 -11373.622750  21715.189191    144.381862
PR04  -2899.240711 -23509.231724   9499.235163    277.790691
PR05 -10840.007272 -21867.200392  -7443.747366     11.676129
PR07  -6973.542811  11737.656086 -21507.341395    -48.072239
PR08   2506.170366  23287.321012 -10049.928223     21.143104
PR09 -24969.716924  -4093.589939   2938.048949     30.553112
PR10 -17856.874979   4299.916431  17643.753981     32.458914
PR11    212.028061  11294.813442  22894.575973    -42.180755
PR13  25086.616500   4017.902748  -2363.274774    -15.122755
PR14  18023.888333  -4520.877364 -17465.671250     31.413375
PR15   4584.552296  -9879.798320 -23045.446351    -16.960579
PR16 -17216.214069 -10967.132397 -15380.817603    102.630834
PR17  18525.791490 -16664.414608  -5345.423817    167.659360
PR18  11050.712084 -19917.706452  11543.610693     25.308148
PR19  -2344.001705 -12136.970712  22306.471322    -59.999076
PR20 -15708.083847   3590.359411  19761.927370   -353.709984
PR21 -18455.844301  16935.281004   4908.182057     -5.792756
PR22  -9476.893329  19375.191825 -13522.836392    -63.837914
PR23   6075.760596   8885.931811 -23137.613214    180.884388
PR24  16232.730121  -4911.898785 -19084.979460   -171.891535
PR26 -15026.379334   2701.269261  20451.329675     49.968643
EOF
